NORAD_CAT_ID,OBJECT_NAME,OBJECT_TYPE,EPOCH,MEAN_MOTION,ECCENTRICITY,INCLINATION,RA_OF_ASC_NODE,ARG_OF_PERICENTER,MEAN_ANOMALY,BSTAR,MEAN_MOTION_DOT,MEAN_MOTION_DDOT,TLE_LINE0,TLE_LINE1,TLE_LINE2,SEMIMAJOR_AXIS,PERIOD,APOGEE,PERIGEE,DECAYED
52640.0,STARLINK-3977,PAYLOAD,2022-07-16 14:00:01,15.73195834,0.0002691,53.2151,129.064,12.7565,63.8012,-0.00014527,-0.00020959,0.0,0 STARLINK-3977,1 52640U 22052AU  22197.58334491 -.00020959  00000-0 -14527-3 0  9995,2 52640  53.2151 129.0640 0002691  12.7565  63.8012 15.73195834  1302,6727.906999999997,91.533,351.583,347.962,0.0
52640.0,STARLINK-3977,PAYLOAD,2022-07-16 20:00:01,15.73179095,0.0002642,53.2153,127.8266,13.613,39.6282,0.00044084,0.00061655,0.0,0 STARLINK-3977,1 52640U 22052AU  22197.83334491  .00061655  00000-0  44084-3 0  9990,2 52640  53.2153 127.8266 0002642  13.6130  39.6282 15.73179095 10309,6727.955,91.534,351.597,348.042,0.0
52640.0,STARLINK-3977,PAYLOAD,2022-07-16 22:00:00,15.73218502,0.0002646,53.2153,127.4147,13.1417,152.3382,0.0001909,0.00026278,0.0,0 STARLINK-3977,1 52640U 22052AU  22197.91667824  .00026278  00000-0  19090-3 0  9999,2 52640  53.2153 127.4147 0002646  13.1417 152.3382 15.73218502  1301,6727.842,91.532,351.48800000000006,347.927,0.0
52640.0,STARLINK-3977,PAYLOAD,2022-07-17 12:00:00,15.73234442,0.0002791,53.2151,124.5281,12.2628,218.8918,-0.00072752,-0.00101674,0.0,0 STARLINK-3977,1 52640U 22052AU  22198.50001157 -.00101674  00000-0 -72752-3 0  9996,2 52640  53.2151 124.5281 0002791  12.2628 218.8918 15.73234442 10406,6727.797,91.531,351.54,347.784,0.0
52640.0,STARLINK-3977,PAYLOAD,2022-07-17 14:00:01,15.73196323,0.0002715,53.2152,124.1152,13.7682,329.6331,-0.00037829,-0.00053379,0.0,0 STARLINK-3977,1 52640U 22052AU  22198.58334491 -.00053379  00000-0 -37829-3 0  9998,2 52640  53.2152 124.1152 0002715  13.7682 329.6331 15.73196323  1306,6727.906,91.533,351.597,347.944,0.0
52640.0,STARLINK-3977,PAYLOAD,2022-07-17 20:00:01,15.73159834,0.0002683,53.2157,122.8754,19.11,300.9739,1.4642e-05,1.4300000000000004e-05,0.0,0 STARLINK-3977,1 52640U 22052AU  22198.83334491  .00001430  00000-0  14642-4 0  9994,2 52640  53.2157 122.8754 0002683  19.1100 300.9739 15.73159834 10459,6728.01,91.536,351.68,348.07,0.0
52640.0,STARLINK-3977,PAYLOAD,2022-07-17 22:00:00,15.73190184,0.0002763,53.216,122.4632,19.2421,53.0564,-0.00059376,-0.00083118,0.0,0 STARLINK-3977,1 52640U 22052AU  22198.91667824 -.00083118  00000-0 -59376-3 0  9999,2 52640  53.2160 122.4632 0002763  19.2421  53.0564 15.73190184  1309,6727.9230000000025,91.534,351.647,347.92900000000014,0.0
52640.0,STARLINK-3977,PAYLOAD,2022-07-18 12:00:00,15.73196351,0.0002768999999999,53.2143,119.5796,19.7611,118.0579,0.00021748,0.00030009,0.0,0 STARLINK-3977,1 52640U 22052AU  22199.50001157  .00030009  00000-0  21748-3 0  9997,2 52640  53.2143 119.5796 0002769  19.7611 118.0579 15.73196351 10568,6727.906,91.533,351.634,347.908,0.0
52640.0,STARLINK-3977,PAYLOAD,2022-07-18 14:00:01,15.73115538,0.0002895,53.2143,119.167,24.0637,225.8662,0.00037375,0.00051975,0.0,0 STARLINK-3977,1 52640U 22052AU  22199.58334491  .00051975  00000-0  37375-3 0  9993,2 52640  53.2143 119.1670 0002895  24.0637 225.8662 15.73115538  1302,6728.136,91.538,351.949,348.05300000000005,0.0
52640.0,STARLINK-3977,PAYLOAD,2022-07-18 20:00:01,15.73172245,0.0002812,53.2145,117.93,24.7987,201.7581,-0.00040843,-0.00057497,0.0,0 STARLINK-3977,1 52640U 22052AU  22199.83334491 -.00057497  00000-0 -40843-3 0  9992,2 52640  53.2145 117.9300 0002812  24.7987 201.7581 15.73172245 10619,6727.974,91.535,351.731,347.94699999999995,0.0
52640.0,STARLINK-3977,PAYLOAD,2022-07-18 22:00:00,15.73157941,0.0002872,53.2146,117.5182,23.5743,315.2058,-0.00032106,-0.00045368,0.0,0 STARLINK-3977,1 52640U 22052AU  22199.91667824 -.00045368  00000-0 -32106-3 0  9997,2 52640  53.2146 117.5182 0002872  23.5743 315.2058 15.73157941  1309,6728.015,91.536,351.81199999999984,347.9480000000001,0.0
52640.0,STARLINK-3977,PAYLOAD,2022-07-19 04:00:00,15.73063079,0.0003078,53.2147,116.2818,21.7209,293.7121,0.0014906,0.0021273,0.0,0 STARLINK-3977,1 52640U 22052AU  22200.16667824  .00212730  00000-0  14906-2 0  9991,2 52640  53.2147 116.2818 0003078  21.7209 293.7121 15.73063079 10666,6728.286,91.541,352.222,348.08,0.0
52640.0,STARLINK-3977,PAYLOAD,2022-07-19 14:00:01,15.73253713,0.0002693,53.2144,114.2185,15.5058,141.0469,0.00062593,0.00088367,0.0,0 STARLINK-3977,1 52640U 22052AU  22200.58334491  .00088367  00000-0  62593-3 0  9991,2 52640  53.2144 114.2185 0002693  15.5058 141.0469 15.73253713  1300,6727.7419999999975,91.53,351.4190000000001,347.795,0.0
52640.0,STARLINK-3977,PAYLOAD,2022-07-19 22:00:00,15.73294594,0.0002827,53.2156,112.5669,22.3968,223.1672,-9.5206e-05,-0.0001402,0.0,0 STARLINK-3977,1 52640U 22052AU  22200.91667824 -.00014020  00000-0 -95206-4 0  9992,2 52640  53.2156 112.5669 0002827  22.3968 223.1672 15.73294594  1306,6727.625,91.528,351.392,347.589,0.0
52640.0,STARLINK-3977,PAYLOAD,2022-07-20 12:00:00,15.73256831,0.0002634,53.2138,109.6817,14.2312,297.193,-0.00031312,-0.0004445,0.0,0 STARLINK-3977,1 52640U 22052AU  22201.50001157 -.00044450  00000-0 -31312-3 0  9996,2 52640  53.2138 109.6817 0002634  14.2312 297.1930 15.73256831 10879,6727.733,91.53,351.37,347.826,0.0
52640.0,STARLINK-3977,PAYLOAD,2022-07-20 14:00:01,15.73226091,0.0002548,53.2138,109.2689,13.6494,50.0295,0.00010171,0.00013693,0.0,0 STARLINK-3977,1 52640U 22052AU  22201.58334491  .00013693  00000-0  10171-3 0  9997,2 52640  53.2138 109.2689 0002548  13.6494  50.0295 15.73226091  1303,6727.821,91.532,351.4,347.972,0.0
52640.0,STARLINK-3977,PAYLOAD,2022-07-20 22:00:01,15.73260875,0.0002658999999999,53.2143,107.6201,14.8654,137.8405,-0.00047451,-0.00066876,0.0,0 STARLINK-3977,1 52640U 22052AU  22201.91668981 -.00066876  00000-0 -47451-3 0  9992,2 52640  53.2143 107.6201 0002659  14.8654 137.8405 15.73260875  1300,6727.722,91.53,351.376,347.798,0.0
52640.0,STARLINK-3977,PAYLOAD,2022-07-21 14:00:01,15.7311938,0.0002689,53.2142,104.32,19.161,311.3772,0.00068065,0.00095677,0.0,0 STARLINK-3977,1 52640U 22052AU  22202.58335648  .00095677  00000-0  68065-3 0  9990,2 52640  53.2142 104.3200 0002689  19.1610 311.3772 15.73119380  1305,6728.125,91.538,351.7990000000001,348.181,0.0
52640.0,STARLINK-3977,PAYLOAD,2022-07-21 20:00:01,15.73190169,0.0002723999999999,53.2143,103.0837,20.4813,286.6322,0.00012733,0.0001728,0.0,0 STARLINK-3977,1 52640U 22052AU  22202.83334491  .00017280  00000-0  12733-3 0  9998,2 52640  53.2143 103.0837 0002724  20.4813 286.6322 15.73190169 11083,6727.9230000000025,91.534,351.621,347.956,0.0
52640.0,STARLINK-3977,PAYLOAD,2022-07-21 22:00:00,15.73196437,0.0002808,53.2141,102.672,20.0934,39.2482,8.1504e-05,0.00010831,0.0,0 STARLINK-3977,1 52640U 22052AU  22202.91667824  .00010831  00000-0  81504-4 0  9994,2 52640  53.2141 102.6720 0002808  20.0934  39.2482 15.73196437  1307,6727.905,91.533,351.66,347.881,0.0
52640.0,STARLINK-3977,PAYLOAD,2022-07-22 06:00:00,15.73219083,0.0002894,53.2136,101.023,18.4358,129.8365,0.0004675,0.00065567,0.0,0 STARLINK-3977,1 52640U 22052AU  22203.25001157  .00065567  00000-0  46750-3 0  9992,2 52640  53.2136 101.0230 0002894  18.4358 129.8365 15.73219083  1305,6727.840999999999,91.532,351.653,347.759,0.0
52640.0,STARLINK-3977,PAYLOAD,2022-07-22 12:00:00,15.73265275,0.0002591,53.2139,99.7841,17.9564,107.0459,-2.7716e-05,-4.522e-05,0.0,0 STARLINK-3977,1 52640U 22052AU  22203.50001157 -.00004522  00000-0 -27716-4 0  9998,2 52640  53.2139  99.7841 0002591  17.9564 107.0459 15.73265275 11190,6727.709,91.529,351.31699999999995,347.831,0.0
52640.0,STARLINK-3977,PAYLOAD,2022-07-22 22:00:00,15.73292097,0.0002583,53.2145,97.7229,13.6675,312.5911,-0.00049769,-0.00070178,0.0,0 STARLINK-3977,1 52640U 22052AU  22203.91667824 -.00070178  00000-0 -49769-3 0  9993,2 52640  53.2145  97.7229 0002583  13.6675 312.5911 15.73292097  1302,6727.6330000000025,91.528,351.235,347.76,0.0
52640.0,STARLINK-3977,PAYLOAD,2022-07-23 04:00:00,15.73346377,0.0002804,53.2153,96.4843,7.7826,295.1964,-0.0025509,-0.00346571,0.0,0 STARLINK-3977,1 52640U 22052AU  22204.16667824 -.00346571  00000-0 -25509-2 0  9999,2 52640  53.2153  96.4843 0002804   7.7826 295.1964 15.73346377 11291,6727.478,91.525,351.22900000000016,347.456,0.0
52640.0,STARLINK-3977,PAYLOAD,2022-07-23 14:00:01,15.73098933,0.0002299,53.217,94.4144,18.7099,125.4423,-0.005837,-0.00747668,0.0,0 STARLINK-3977,1 52640U 22052AU  22204.58335648 -.00747668  00000-0 -58370-2 0  9995,2 52640  53.2170  94.4144 0002299  18.7099 125.4423 15.73098933  1302,6728.183000000001,91.539,351.595,348.50199999999984,0.0
52640.0,STARLINK-3977,PAYLOAD,2022-07-23 22:00:00,15.72556304,0.0002813,53.2175,92.7636,13.5476,219.0375,-0.0085548999999999,-0.01051892,0.0,0 STARLINK-3977,1 52640U 22052AU  22204.91667824 -.01051892  00000-0 -85549-2 0  9992,2 52640  53.2175  92.7636 0002813  13.5476 219.0375 15.72556304  1304,6729.731,91.571,353.48900000000015,349.70300000000015,0.0
52640.0,STARLINK-3977,PAYLOAD,2022-07-24 14:00:01,15.71036982,0.000248,53.2172,89.4644,13.3714,33.6883,-0.0091291,-0.01051854,0.0,0 STARLINK-3977,1 52640U 22052AU  22205.58334491 -.01051854  00000-0 -91291-2 0  9996,2 52640  53.2172  89.4644 0002480  13.3714  33.6883 15.71036982  1304,6734.069,91.659,357.60400000000016,354.264,0.0
52640.0,STARLINK-3977,PAYLOAD,2022-07-24 22:00:00,15.70282183,0.0002819,53.2171,87.8203,0.6033,132.3208,-0.0094862,-0.01058164,0.0,0 STARLINK-3977,1 52640U 22052AU  22205.91667824 -.01058164  00000-0 -94862-2 0  9990,2 52640  53.2171  87.8203 0002819   0.6033 132.3208 15.70282183  1308,6736.227,91.703,359.991,356.1930000000001,0.0
52640.0,STARLINK-3977,PAYLOAD,2022-07-25 14:00:01,15.68758397,0.0001324,53.2173,84.5321,39.4562,262.4678,-0.010028,-0.01049805,0.0,0 STARLINK-3977,1 52640U 22052AU  22206.58334491 -.01049805  00000-0 -10028-1 0  9998,2 52640  53.2173  84.5321 0001324  39.4562 262.4678 15.68758397  1300,6740.5880000000025,91.792,363.346,361.561,0.0
